{"type": "FeatureCollection", "features": [ {"type": "Feature", "properties": {"norad_id": 33841, "name": "COSMOS 2251 DEB", "group": "cosmos-2251-debris", "lat": 19.185190320450523, "lon": -100.95024077683095, "alt_km": 755.4158911065779, "timestamp": "2025-12-26T03:50:12.486907+00:00", "meta": {"OBJECT_NAME": "COSMOS 2251 DEB", "OBJECT_ID": "1993-036CJ", "EPOCH": "2025-12-25T19:45:59.555808", "MEAN_MOTION": 14.37878424, "ECCENTRICITY": 0.0021049, "INCLINATION": 74.0373, "RA_OF_ASC_NODE": 253.953, "ARG_OF_PERICENTER": 331.9844, "MEAN_ANOMALY": 108.0202, "EPHEMERIS_TYPE": 0, "CLASSIFICATION_TYPE": "U", "NORAD_CAT_ID": 33841, "ELEMENT_SET_NO": 999, "REV_AT_EPOCH": 88302, "BSTAR": 0.00021087, "MEAN_MOTION_DOT": 6.11e-06, "MEAN_MOTION_DDOT": 0}, "tle": {"line1": "1 33841U 93036CJ  25359.82360597  .00000611  00000+0  21087-3 0  9992", "line2": "2 33841  74.0373 253.9530 0021049 331.9844 108.0202 14.37878424883022"}}, "geometry": {"type": "Point", "coordinates": [-100.95024077683095, 19.185190320450523]}}, {"type": "Feature", "properties": {"norad_id": 33842, "name": "COSMOS 2251 DEB", "group": "cosmos-2251-debris", "lat": 30.536974637669335, "lon": 5.01753182302934, "alt_km": 777.2767757655538, "timestamp": "2025-12-26T03:50:12.486921+00:00", "meta": {"OBJECT_NAME": "COSMOS 2251 DEB", "OBJECT_ID": "1993-036CK", "EPOCH": "2025-12-24T22:51:30.450528", "MEAN_MOTION": 14.42719632, "ECCENTRICITY": 0.00475856, "INCLINATION": 74.0316, "RA_OF_ASC_NODE": 196.9828, "ARG_OF_PERICENTER": 301.8992, "MEAN_ANOMALY": 57.7539, "EPHEMERIS_TYPE": 0, "CLASSIFICATION_TYPE": "U", "NORAD_CAT_ID": 33842, "ELEMENT_SET_NO": 999, "REV_AT_EPOCH": 88513, "BSTAR": 0.00025425841, "MEAN_MOTION_DOT": 8.31e-06, "MEAN_MOTION_DDOT": 0}, "tle": {"line1": "1 33842U 93036CK  25358.95243577  .00000831  00000+0  25426-3 0  9999", "line2": "2 33842  74.0316 196.9828 0047585 301.8992  57.7539 14.42719632885137"}}, "geometry": {"type": "Point", "coordinates": [5.01753182302934, 30.536974637669335]}}, {"type": "Feature", "properties": {"norad_id": 33844, "name": "COSMOS 2251 DEB", "group": "cosmos-2251-debris", "lat": 4.629867281091548, "lon": 29.60361402642732, "alt_km": 755.6715536512156, "timestamp": "2025-12-26T03:50:12.486934+00:00", "meta": {"OBJECT_NAME": "COSMOS 2251 DEB", "OBJECT_ID": "1993-036CM", "EPOCH": "2025-12-25T13:17:44.608992", "MEAN_MOTION": 14.33741262, "ECCENTRICITY": 0.004722, "INCLINATION": 74.0664, "RA_OF_ASC_NODE": 29.3837, "ARG_OF_PERICENTER": 47.2297, "MEAN_ANOMALY": 72.0893, "EPHEMERIS_TYPE": 0, "CLASSIFICATION_TYPE": "U", "NORAD_CAT_ID": 33844, "ELEMENT_SET_NO": 999, "REV_AT_EPOCH": 87909, "BSTAR": 0.00036056, "MEAN_MOTION_DOT": 9.89e-06, "MEAN_MOTION_DDOT": 0}, "tle": {"line1": "1 33844U 93036CM  25359.55398853  .00000989  00000+0  36056-3 0  9991", "line2": "2 33844  74.0664  29.3837 0047220  47.2297  72.0893 14.33741262879094"}}, "geometry": {"type": "Point", "coordinates": [29.60361402642732, 4.629867281091548]}}, {"type": "Feature", "properties": {"norad_id": 33848, "name": "COSMOS 2251 DEB", "group": "cosmos-2251-debris", "lat": -33.51315926366063, "lon": -38.258294184256734, "alt_km": 735.4059122528106, "timestamp": "2025-12-26T03:50:12.486944+00:00", "meta": {"OBJECT_NAME": "COSMOS 2251 DEB", "OBJECT_ID": "1993-036CR", "EPOCH": "2025-12-25T15:14:41.354304", "MEAN_MOTION": 14.44151779, "ECCENTRICITY": 0.0041938, "INCLINATION": 74.0324, "RA_OF_ASC_NODE": 333.6473, "ARG_OF_PERICENTER": 25.7702, "MEAN_ANOMALY": 93.0831, "EPHEMERIS_TYPE": 0, "CLASSIFICATION_TYPE": "U", "NORAD_CAT_ID": 33848, "ELEMENT_SET_NO": 999, "REV_AT_EPOCH": 88017, "BSTAR": 0.0012844, "MEAN_MOTION_DOT": 4.427e-05, "MEAN_MOTION_DDOT": 0}, "tle": {"line1": "1 33848U 93036CR  25359.63520086  .00004427  00000+0  12844-2 0  9998", "line2": "2 33848  74.0324 333.6473 0041938  25.7702  93.0831 14.44151779880176"}}, "geometry": {"type": "Point", "coordinates": [-38.258294184256734, -33.51315926366063]}}, {"type": "Feature", "properties": {"norad_id": 33892, "name": "COSMOS 2251 DEB", "group": "cosmos-2251-debris", "lat": -30.634280765799343, "lon": 67.66398992046652, "alt_km": 879.1890758162563, "timestamp": "2025-12-26T03:50:12.486955+00:00", "meta": {"OBJECT_NAME": "COSMOS 2251 DEB", "OBJECT_ID": "1993-036CV", "EPOCH": "2025-12-25T08:03:07.750368", "MEAN_MOTION": 14.23378094, "ECCENTRICITY": 0.0112112, "INCLINATION": 73.8025, "RA_OF_ASC_NODE": 79.0793, "ARG_OF_PERICENTER": 107.8295, "MEAN_ANOMALY": 318.5772, "EPHEMERIS_TYPE": 0, "CLASSIFICATION_TYPE": "U", "NORAD_CAT_ID": 33892, "ELEMENT_SET_NO": 999, "REV_AT_EPOCH": 87134, "BSTAR": 0.00060646, "MEAN_MOTION_DOT": 1.442e-05, "MEAN_MOTION_DDOT": 0}, "tle": {"line1": "1 33892U 93036CV  25359.33550637  .00001442  00000+0  60646-3 0  9997", "line2": "2 33892  73.8025  79.0793 0112112 107.8295 318.5772 14.23378094871344"}}, "geometry": {"type": "Point", "coordinates": [67.66398992046652, -30.634280765799343]}}, {"type": "Feature", "properties": {"norad_id": 33894, "name": "COSMOS 2251 DEB", "group": "cosmos-2251-debris", "lat": 0.4209790809442802, "lon": -31.565122746149534, "alt_km": 1342.6450891777768, "timestamp": "2025-12-26T03:50:12.486966+00:00", "meta": {"OBJECT_NAME": "COSMOS 2251 DEB", "OBJECT_ID": "1993-036CX", "EPOCH": "2025-12-25T15:06:55.116576", "MEAN_MOTION": 13.2132861, "ECCENTRICITY": 0.0578594, "INCLINATION": 73.7663, "RA_OF_ASC_NODE": 329.132, "ARG_OF_PERICENTER": 246.8452, "MEAN_ANOMALY": 107.0692, "EPHEMERIS_TYPE": 0, "CLASSIFICATION_TYPE": "U", "NORAD_CAT_ID": 33894, "ELEMENT_SET_NO": 999, "REV_AT_EPOCH": 80878, "BSTAR": 0.00061723, "MEAN_MOTION_DOT": 5.9e-06, "MEAN_MOTION_DDOT": 0}, "tle": {"line1": "1 33894U 93036CX  25359.62980459  .00000590  00000+0  61723-3 0  9990", "line2": "2 33894  73.7663 329.1320 0578594 246.8452 107.0692 13.21328610808783"}}, "geometry": {"type": "Point", "coordinates": [-31.565122746149534, 0.4209790809442802]}}, {"type": "Feature", "properties": {"norad_id": 33896, "name": "COSMOS 2251 DEB", "group": "cosmos-2251-debris", "lat": -8.642548969321183, "lon": -45.14270208019946, "alt_km": 872.7661539081646, "timestamp": "2025-12-26T03:50:12.486976+00:00", "meta": {"OBJECT_NAME": "COSMOS 2251 DEB", "OBJECT_ID": "1993-036CZ", "EPOCH": "2025-12-25T15:10:08.224896", "MEAN_MOTION": 14.19068816, "ECCENTRICITY": 0.0127213, "INCLINATION": 73.7666, "RA_OF_ASC_NODE": 133.2772, "ARG_OF_PERICENTER": 306.8958, "MEAN_ANOMALY": 67.8616, "EPHEMERIS_TYPE": 0, "CLASSIFICATION_TYPE": "U", "NORAD_CAT_ID": 33896, "ELEMENT_SET_NO": 999, "REV_AT_EPOCH": 86923, "BSTAR": 0.00066526, "MEAN_MOTION_DOT": 1.479e-05, "MEAN_MOTION_DDOT": 0}, "tle": {"line1": "1 33896U 93036CZ  25359.63203964  .00001479  00000+0  66526-3 0  9995", "line2": "2 33896  73.7666 133.2772 0127213 306.8958  67.8616 14.19068816869232"}}, "geometry": {"type": "Point", "coordinates": [-45.14270208019946, -8.642548969321183]}}, {"type": "Feature", "properties": {"norad_id": 33899, "name": "COSMOS 2251 DEB", "group": "cosmos-2251-debris", "lat": 73.40521153404738, "lon": 133.72096602064147, "alt_km": 648.5227807224783, "timestamp": "2025-12-26T03:50:12.486986+00:00", "meta": {"OBJECT_NAME": "COSMOS 2251 DEB", "OBJECT_ID": "1993-036DC", "EPOCH": "2025-12-25T04:34:52.061376", "MEAN_MOTION": 14.61291008, "ECCENTRICITY": 0.00559701, "INCLINATION": 74.0532, "RA_OF_ASC_NODE": 61.9432, "ARG_OF_PERICENTER": 120.9342, "MEAN_ANOMALY": 269.4, "EPHEMERIS_TYPE": 0, "CLASSIFICATION_TYPE": "U", "NORAD_CAT_ID": 33899, "ELEMENT_SET_NO": 999, "REV_AT_EPOCH": 89021, "BSTAR": 0.00082401732, "MEAN_MOTION_DOT": 4.131e-05, "MEAN_MOTION_DDOT": 0}, "tle": {"line1": "1 33899U 93036DC  25359.19088034  .00004131  00000+0  82402-3 0  9997", "line2": "2 33899  74.0532  61.9432 0055970 120.9342 269.4000 14.61291008890210"}}, "geometry": {"type": "Point", "coordinates": [133.72096602064147, 73.40521153404738]}}, {"type": "Feature", "properties": {"norad_id": 33900, "name": "COSMOS 2251 DEB", "group": "cosmos-2251-debris", "lat": -17.333821591837086, "lon": -30.838471965789335, "alt_km": 728.1542228316039, "timestamp": "2025-12-26T03:50:12.486997+00:00", "meta": {"OBJECT_NAME": "COSMOS 2251 DEB", "OBJECT_ID": "1993-036DD", "EPOCH": "2025-12-25T08:50:54.447072", "MEAN_MOTION": 14.58390981, "ECCENTRICITY": 0.0046325, "INCLINATION": 74.0196, "RA_OF_ASC_NODE": 335.7997, "ARG_OF_PERICENTER": 124.1586, "MEAN_ANOMALY": 26.0739, "EPHEMERIS_TYPE": 0, "CLASSIFICATION_TYPE": "U", "NORAD_CAT_ID": 33900, "ELEMENT_SET_NO": 999, "REV_AT_EPOCH": 89220, "BSTAR": 0.00043405, "MEAN_MOTION_DOT": 2.012e-05, "MEAN_MOTION_DDOT": 0}, "tle": {"line1": "1 33900U 93036DD  25359.36868573  .00002012  00000+0  43405-3 0  9999", "line2": "2 33900  74.0196 335.7997 0046325 124.1586  26.0739 14.58390981892200"}}, "geometry": {"type": "Point", "coordinates": [-30.838471965789335, -17.333821591837086]}}, {"type": "Feature", "properties": {"norad_id": 33901, "name": "COSMOS 2251 DEB", "group": "cosmos-2251-debris", "lat": -68.60825610532947, "lon": -111.11744269221457, "alt_km": 526.2135276281679, "timestamp": "2025-12-26T03:50:12.487007+00:00", "meta": {"OBJECT_NAME": "COSMOS 2251 DEB", "OBJECT_ID": "1993-036DE", "EPOCH": "2025-12-25T12:28:22.218240", "MEAN_MOTION": 15.17250961, "ECCENTRICITY": 0.0029794, "INCLINATION": 73.7744, "RA_OF_ASC_NODE": 22.2172, "ARG_OF_PERICENTER": 152.012, "MEAN_ANOMALY": 208.2685, "EPHEMERIS_TYPE": 0, "CLASSIFICATION_TYPE": "U", "NORAD_CAT_ID": 33901, "ELEMENT_SET_NO": 999, "REV_AT_EPOCH": 89707, "BSTAR": 0.0024799, "MEAN_MOTION_DOT": 0.00050239, "MEAN_MOTION_DDOT": 0}, "tle": {"line1": "1 33901U 93036DE  25359.51970160  .00050239  00000+0  24799-2 0  9991", "line2": "2 33901  73.7744  22.2172 0029794 152.0120 208.2685 15.17250961897077"}}, "geometry": {"type": "Point", "coordinates": [-111.11744269221457, -68.60825610532947]}}]}